<?xml version="1.0" encoding="UTF-8"?>
<ndm xmlns:xsi="http://www.w3.org/2001/XMLSchema-instance" xsi:noNamespaceSchemaLocation="https://sanaregistry.org/r/ndmxml_unqualified/ndmxml-2.0.0-master-2.0.xsd">
<omm id="CCSDS_OMM_VERS" version="2.0">
<header><CREATION_DATE/><ORIGINATOR/></header><body><segment><metadata><OBJECT_NAME>KUIPER-00029</OBJECT_NAME><OBJECT_ID>2025-088U</OBJECT_ID><CENTER_NAME>EARTH</CENTER_NAME><REF_FRAME>TEME</REF_FRAME><TIME_SYSTEM>UTC</TIME_SYSTEM><MEAN_ELEMENT_THEORY>SGP4</MEAN_ELEMENT_THEORY></metadata><data><meanElements><EPOCH>2025-10-13T00:26:33.481248</EPOCH><MEAN_MOTION>14.79914458</MEAN_MOTION><ECCENTRICITY>.00085108</ECCENTRICITY><INCLINATION>51.9030</INCLINATION><RA_OF_ASC_NODE>24.3429</RA_OF_ASC_NODE><ARG_OF_PERICENTER>8.6093</ARG_OF_PERICENTER><MEAN_ANOMALY>351.5014</MEAN_ANOMALY></meanElements><tleParameters><EPHEMERIS_TYPE>0</EPHEMERIS_TYPE><CLASSIFICATION_TYPE>U</CLASSIFICATION_TYPE><NORAD_CAT_ID>63742</NORAD_CAT_ID><ELEMENT_SET_NO>999</ELEMENT_SET_NO><REV_AT_EPOCH>2574</REV_AT_EPOCH><BSTAR>.64299755E-3</BSTAR><MEAN_MOTION_DOT>.4683E-4</MEAN_MOTION_DOT><MEAN_MOTION_DDOT>0</MEAN_MOTION_DDOT></tleParameters></data></segment></body></omm>
<omm id="CCSDS_OMM_VERS" version="2.0">
<header><CREATION_DATE/><ORIGINATOR/></header><body><segment><metadata><OBJECT_NAME>KUIPER-00030</OBJECT_NAME><OBJECT_ID>2025-088V</OBJECT_ID><CENTER_NAME>EARTH</CENTER_NAME><REF_FRAME>TEME</REF_FRAME><TIME_SYSTEM>UTC</TIME_SYSTEM><MEAN_ELEMENT_THEORY>SGP4</MEAN_ELEMENT_THEORY></metadata><data><meanElements><EPOCH>2025-10-13T00:34:23.450592</EPOCH><MEAN_MOTION>14.79829489</MEAN_MOTION><ECCENTRICITY>.00141698</ECCENTRICITY><INCLINATION>51.9067</INCLINATION><RA_OF_ASC_NODE>43.5107</RA_OF_ASC_NODE><ARG_OF_PERICENTER>303.2711</ARG_OF_PERICENTER><MEAN_ANOMALY>56.6894</MEAN_ANOMALY></meanElements><tleParameters><EPHEMERIS_TYPE>0</EPHEMERIS_TYPE><CLASSIFICATION_TYPE>U</CLASSIFICATION_TYPE><NORAD_CAT_ID>63743</NORAD_CAT_ID><ELEMENT_SET_NO>999</ELEMENT_SET_NO><REV_AT_EPOCH>2576</REV_AT_EPOCH><BSTAR>.1199339E-2</BSTAR><MEAN_MOTION_DOT>.8923E-4</MEAN_MOTION_DOT><MEAN_MOTION_DDOT>0</MEAN_MOTION_DDOT></tleParameters></data></segment></body></omm>
<omm id="CCSDS_OMM_VERS" version="2.0">
<header><CREATION_DATE/><ORIGINATOR/></header><body><segment><metadata><OBJECT_NAME>KUIPER-00031</OBJECT_NAME><OBJECT_ID>2025-088W</OBJECT_ID><CENTER_NAME>EARTH</CENTER_NAME><REF_FRAME>TEME</REF_FRAME><TIME_SYSTEM>UTC</TIME_SYSTEM><MEAN_ELEMENT_THEORY>SGP4</MEAN_ELEMENT_THEORY></metadata><data><meanElements><EPOCH>2025-10-12T13:34:48.478368</EPOCH><MEAN_MOTION>14.79957482</MEAN_MOTION><ECCENTRICITY>.00034741</ECCENTRICITY><INCLINATION>51.9008</INCLINATION><RA_OF_ASC_NODE>31.6130</RA_OF_ASC_NODE><ARG_OF_PERICENTER>343.7819</ARG_OF_PERICENTER><MEAN_ANOMALY>16.3031</MEAN_ANOMALY></meanElements><tleParameters><EPHEMERIS_TYPE>0</EPHEMERIS_TYPE><CLASSIFICATION_TYPE>U</CLASSIFICATION_TYPE><NORAD_CAT_ID>63744</NORAD_CAT_ID><ELEMENT_SET_NO>999</ELEMENT_SET_NO><REV_AT_EPOCH>2560</REV_AT_EPOCH><BSTAR>.10622448E-2</BSTAR><MEAN_MOTION_DOT>.7891E-4</MEAN_MOTION_DOT><MEAN_MOTION_DDOT>0</MEAN_MOTION_DDOT></tleParameters></data></segment></body></omm>
<omm id="CCSDS_OMM_VERS" version="2.0">
<header><CREATION_DATE/><ORIGINATOR/></header><body><segment><metadata><OBJECT_NAME>KUIPER-00032</OBJECT_NAME><OBJECT_ID>2025-088X</OBJECT_ID><CENTER_NAME>EARTH</CENTER_NAME><REF_FRAME>TEME</REF_FRAME><TIME_SYSTEM>UTC</TIME_SYSTEM><MEAN_ELEMENT_THEORY>SGP4</MEAN_ELEMENT_THEORY></metadata><data><meanElements><EPOCH>2025-10-12T23:39:42.212736</EPOCH><MEAN_MOTION>15.31187873</MEAN_MOTION><ECCENTRICITY>.00051172</ECCENTRICITY><INCLINATION>51.8743</INCLINATION><RA_OF_ASC_NODE>14.9096</RA_OF_ASC_NODE><ARG_OF_PERICENTER>321.3001</ARG_OF_PERICENTER><MEAN_ANOMALY>38.7616</MEAN_ANOMALY></meanElements><tleParameters><EPHEMERIS_TYPE>0</EPHEMERIS_TYPE><CLASSIFICATION_TYPE>U</CLASSIFICATION_TYPE><NORAD_CAT_ID>63745</NORAD_CAT_ID><ELEMENT_SET_NO>999</ELEMENT_SET_NO><REV_AT_EPOCH>2687</REV_AT_EPOCH><BSTAR>.71603792E-3</BSTAR><MEAN_MOTION_DOT>.21592E-3</MEAN_MOTION_DOT><MEAN_MOTION_DDOT>0</MEAN_MOTION_DDOT></tleParameters></data></segment></body></omm>
<omm id="CCSDS_OMM_VERS" version="2.0">
<header><CREATION_DATE/><ORIGINATOR/></header><body><segment><metadata><OBJECT_NAME>KUIPER-00033</OBJECT_NAME><OBJECT_ID>2025-088Y</OBJECT_ID><CENTER_NAME>EARTH</CENTER_NAME><REF_FRAME>TEME</REF_FRAME><TIME_SYSTEM>UTC</TIME_SYSTEM><MEAN_ELEMENT_THEORY>SGP4</MEAN_ELEMENT_THEORY></metadata><data><meanElements><EPOCH>2025-10-13T01:45:58.031712</EPOCH><MEAN_MOTION>14.79955390</MEAN_MOTION><ECCENTRICITY>.00041993</ECCENTRICITY><INCLINATION>51.9040</INCLINATION><RA_OF_ASC_NODE>59.3484</RA_OF_ASC_NODE><ARG_OF_PERICENTER>61.7901</ARG_OF_PERICENTER><MEAN_ANOMALY>298.3485</MEAN_ANOMALY></meanElements><tleParameters><EPHEMERIS_TYPE>0</EPHEMERIS_TYPE><CLASSIFICATION_TYPE>U</CLASSIFICATION_TYPE><NORAD_CAT_ID>63746</NORAD_CAT_ID><ELEMENT_SET_NO>999</ELEMENT_SET_NO><REV_AT_EPOCH>2574</REV_AT_EPOCH><BSTAR>.37129599E-3</BSTAR><MEAN_MOTION_DOT>.2611E-4</MEAN_MOTION_DOT><MEAN_MOTION_DDOT>0</MEAN_MOTION_DDOT></tleParameters></data></segment></body></omm>
<omm id="CCSDS_OMM_VERS" version="2.0">
<header><CREATION_DATE/><ORIGINATOR/></header><body><segment><metadata><OBJECT_NAME>KUIPER-00034</OBJECT_NAME><OBJECT_ID>2025-088Z</OBJECT_ID><CENTER_NAME>EARTH</CENTER_NAME><REF_FRAME>TEME</REF_FRAME><TIME_SYSTEM>UTC</TIME_SYSTEM><MEAN_ELEMENT_THEORY>SGP4</MEAN_ELEMENT_THEORY></metadata><data><meanElements><EPOCH>2025-10-12T22:59:13.667712</EPOCH><MEAN_MOTION>14.79864902</MEAN_MOTION><ECCENTRICITY>.00018481</ECCENTRICITY><INCLINATION>51.9024</INCLINATION><RA_OF_ASC_NODE>22.1537</RA_OF_ASC_NODE><ARG_OF_PERICENTER>339.7886</ARG_OF_PERICENTER><MEAN_ANOMALY>20.3003</MEAN_ANOMALY></meanElements><tleParameters><EPHEMERIS_TYPE>0</EPHEMERIS_TYPE><CLASSIFICATION_TYPE>U</CLASSIFICATION_TYPE><NORAD_CAT_ID>63747</NORAD_CAT_ID><ELEMENT_SET_NO>999</ELEMENT_SET_NO><REV_AT_EPOCH>2593</REV_AT_EPOCH><BSTAR>.64392674E-3</BSTAR><MEAN_MOTION_DOT>.4683E-4</MEAN_MOTION_DOT><MEAN_MOTION_DDOT>0</MEAN_MOTION_DDOT></tleParameters></data></segment></body></omm>
<omm id="CCSDS_OMM_VERS" version="2.0">
<header><CREATION_DATE/><ORIGINATOR/></header><body><segment><metadata><OBJECT_NAME>KUIPER-00035</OBJECT_NAME><OBJECT_ID>2025-088AA</OBJECT_ID><CENTER_NAME>EARTH</CENTER_NAME><REF_FRAME>TEME</REF_FRAME><TIME_SYSTEM>UTC</TIME_SYSTEM><MEAN_ELEMENT_THEORY>SGP4</MEAN_ELEMENT_THEORY></metadata><data><meanElements><EPOCH>2025-10-12T17:59:19.149216</EPOCH><MEAN_MOTION>14.80138947</MEAN_MOTION><ECCENTRICITY>.00042233</ECCENTRICITY><INCLINATION>51.9011</INCLINATION><RA_OF_ASC_NODE>48.2945</RA_OF_ASC_NODE><ARG_OF_PERICENTER>302.2036</ARG_OF_PERICENTER><MEAN_ANOMALY>57.8517</MEAN_ANOMALY></meanElements><tleParameters><EPHEMERIS_TYPE>0</EPHEMERIS_TYPE><CLASSIFICATION_TYPE>U</CLASSIFICATION_TYPE><NORAD_CAT_ID>63748</NORAD_CAT_ID><ELEMENT_SET_NO>999</ELEMENT_SET_NO><REV_AT_EPOCH>2560</REV_AT_EPOCH><BSTAR>.49131458E-2</BSTAR><MEAN_MOTION_DOT>.37632E-3</MEAN_MOTION_DOT><MEAN_MOTION_DDOT>0</MEAN_MOTION_DDOT></tleParameters></data></segment></body></omm>
<omm id="CCSDS_OMM_VERS" version="2.0">
<header><CREATION_DATE/><ORIGINATOR/></header><body><segment><metadata><OBJECT_NAME>KUIPER-00037</OBJECT_NAME><OBJECT_ID>2025-088AB</OBJECT_ID><CENTER_NAME>EARTH</CENTER_NAME><REF_FRAME>TEME</REF_FRAME><TIME_SYSTEM>UTC</TIME_SYSTEM><MEAN_ELEMENT_THEORY>SGP4</MEAN_ELEMENT_THEORY></metadata><data><meanElements><EPOCH>2025-10-13T06:59:46.698144</EPOCH><MEAN_MOTION>14.80092930</MEAN_MOTION><ECCENTRICITY>.00068084</ECCENTRICITY><INCLINATION>51.9033</INCLINATION><RA_OF_ASC_NODE>44.8571</RA_OF_ASC_NODE><ARG_OF_PERICENTER>246.3022</ARG_OF_PERICENTER><MEAN_ANOMALY>113.7227</MEAN_ANOMALY></meanElements><tleParameters><EPHEMERIS_TYPE>0</EPHEMERIS_TYPE><CLASSIFICATION_TYPE>U</CLASSIFICATION_TYPE><NORAD_CAT_ID>63749</NORAD_CAT_ID><ELEMENT_SET_NO>999</ELEMENT_SET_NO><REV_AT_EPOCH>2648</REV_AT_EPOCH><BSTAR>.36465155E-2</BSTAR><MEAN_MOTION_DOT>.27807E-3</MEAN_MOTION_DOT><MEAN_MOTION_DDOT>0</MEAN_MOTION_DDOT></tleParameters></data></segment></body></omm>
<omm id="CCSDS_OMM_VERS" version="2.0">
<header><CREATION_DATE/><ORIGINATOR/></header><body><segment><metadata><OBJECT_NAME>KUIPER-00038</OBJECT_NAME><OBJECT_ID>2025-088AC</OBJECT_ID><CENTER_NAME>EARTH</CENTER_NAME><REF_FRAME>TEME</REF_FRAME><TIME_SYSTEM>UTC</TIME_SYSTEM><MEAN_ELEMENT_THEORY>SGP4</MEAN_ELEMENT_THEORY></metadata><data><meanElements><EPOCH>2025-10-13T00:23:12.001632</EPOCH><MEAN_MOTION>14.77040968</MEAN_MOTION><ECCENTRICITY>.00055974</ECCENTRICITY><INCLINATION>51.9025</INCLINATION><RA_OF_ASC_NODE>30.8598</RA_OF_ASC_NODE><ARG_OF_PERICENTER>316.0119</ARG_OF_PERICENTER><MEAN_ANOMALY>44.0397</MEAN_ANOMALY></meanElements><tleParameters><EPHEMERIS_TYPE>0</EPHEMERIS_TYPE><CLASSIFICATION_TYPE>U</CLASSIFICATION_TYPE><NORAD_CAT_ID>63750</NORAD_CAT_ID><ELEMENT_SET_NO>999</ELEMENT_SET_NO><REV_AT_EPOCH>2565</REV_AT_EPOCH><BSTAR>.51428909E-3</BSTAR><MEAN_MOTION_DOT>.3447E-4</MEAN_MOTION_DOT><MEAN_MOTION_DDOT>0</MEAN_MOTION_DDOT></tleParameters></data></segment></body></omm>

</ndm>
